[Satellite]
VERSION=1.1
NAME=FLOCK 3P-81
NICKNAME=FLOCK 3P-81
TLE1=1 42043U 17008CZ  18020.79582800  .00001272  00000-0  55643-4 0  9998
TLE2=2 42043  97.4721  86.5775 0009220 147.4212 212.7595 15.23879598 50842
